CS1                     
1 49261U 21088B   26068.75173904  .00015722  00000+0  51176-3 0  9998
2 49261  97.3882 132.1684 0014129  78.0335 282.2490 15.31848439245182
STARLINK-30392          
1 57855U 23141R   26068.82990884  .00000172  00000+0  17932-4 0  9996
2 57855  53.1598 283.1751 0000966 102.9029 257.2080 15.30187316140356
